IRIDIUM 33 DEB          
1 35926U 97051UK  17345.49831488  .00001763  00000-0  37037-3 0  9992
2 35926  86.3482 170.7939 0007938 326.2530  33.8173 14.59068391445398
